IRIDIUM 126             
1 42809U 17039G   23358.55327445  .00000070  00000+0  18051-4 0  9994
2 42809  86.3969  12.1136 0002481  95.5103 264.6376 14.34217723340148
IRIDIUM 124             
1 42810U 17039H   23358.38361913  .00000801  00000+0  23207-3 0  9995
2 42810  86.4488 308.9384 0002203  80.3535 279.7915 14.43287198344469
IRIDIUM 128             
1 42811U 17039J   23358.61377958  .00001177  00000+0  41334-3 0  9996
2 42811  86.3965  43.6053 0002219  93.1267 267.0182 14.34217935340189
IRIDIUM 121             
1 42812U 17039K   23358.50253255  .00000358  00000+0  12074-3 0  9997
2 42812  86.3971  12.1565 0002231  96.0977 264.0473 14.34217297340013
IRIDIUM 133             
1 42955U 17061A   23358.57572266  .00000470  00000+0  16073-3 0  9991
2 42955  86.3967  43.7165 0002288  95.6978 264.4478 14.34220968324975
IRIDIUM 100             
1 42956U 17061B   23358.56938014  .00000450  00000+0  15379-3 0  9994
2 42956  86.3966  43.6593 0002334  98.2346 261.9115 14.34216485324978
IRIDIUM 122             
1 42957U 17061C   23358.60743677  .00000498  00000+0  17074-3 0  9995
2 42957  86.3966  43.6413 0002357  92.5482 267.5984 14.34217458324981
IRIDIUM 129             
1 42958U 17061D   23358.56304028  .00000471  00000+0  16125-3 0  9991
2 42958  86.3967  43.7173 0002313  91.4998 268.6462 14.34218368324994
